{
  "type": "FeatureCollection",
  "features": [
    {
      "type": "Feature",
      "properties": {
        "norad_id": 37867,
        "name": "COSMOS 2476 (744)",
        "group": "glo-ops",
        "lat": -31.254728095542948,
        "lon": -84.64437721668983,
        "alt_km": 19076.1546384278,
        "timestamp": "2025-12-16T05:49:09.475776+00:00",
        "meta_object_name": "COSMOS 2476 (744)",
        "meta_object_id": "2011-064A",
        "meta_epoch": "2025-12-15T11:25:46.908768",
        "meta_mean_motion": 2.1310152,
        "meta_eccentricity": 0.00240578,
        "meta_inclination": 65.1644,
        "meta_ra_of_asc_node": 79.0785,
        "meta_arg_of_pericenter": 234.0946,
        "meta_mean_anomaly": 112.9924,
        "meta_ephemeris_type": 0,
        "meta_classification_type": "U",
        "meta_norad_cat_id": 37867,
        "meta_element_set_no": 999,
        "meta_rev_at_epoch": 10984,
        "meta_bstar": 0,
        "meta_mean_motion_dot": -5.6e-07,
        "meta_mean_motion_ddot": 0,
        "tle_line1": "1 37867U 11064A   25349.47623737 -.00000056  00000+0  00000+0 0  9995",
        "tle_line2": "2 37867  65.1644  79.0785 0024057 234.0946 112.9924  2.13101520109846"
      },
      "geometry": {
        "type": "Point",
        "coordinates": [
          -84.64437721668983,
          -31.254728095542948
        ]
      }
    },
    {
      "type": "Feature",
      "properties": {
        "norad_id": 37868,
        "name": "COSMOS 2477 (745)",
        "group": "glo-ops",
        "lat": 32.18577854445226,
        "lon": 96.04902780431591,
        "alt_km": 19177.28529108759,
        "timestamp": "2025-12-16T05:49:09.475797+00:00",
        "meta_object_name": "COSMOS 2477 (745)",
        "meta_object_id": "2011-064B",
        "meta_epoch": "2025-12-15T06:06:12.573216",
        "meta_mean_motion": 2.1310289,
        "meta_eccentricity": 0.00211455,
        "meta_inclination": 65.1707,
        "meta_ra_of_asc_node": 79.1637,
        "meta_arg_of_pericenter": 234.5873,
        "meta_mean_anomaly": 123.1925,
        "meta_ephemeris_type": 0,
        "meta_classification_type": "U",
        "meta_norad_cat_id": 37868,
        "meta_element_set_no": 999,
        "meta_rev_at_epoch": 10983,
        "meta_bstar": 0,
        "meta_mean_motion_dot": -5.6e-07,
        "meta_mean_motion_ddot": 0,
        "tle_line1": "1 37868U 11064B   25349.25431219 -.00000056  00000+0  00000+0 0  9994",
        "tle_line2": "2 37868  65.1707  79.1637 0021145 234.5873 123.1925  2.13102890109838"
      },
      "geometry": {
        "type": "Point",
        "coordinates": [
          96.04902780431591,
          32.18577854445226
        ]
      }
    },
    {
      "type": "Feature",
      "properties": {
        "norad_id": 37869,
        "name": "COSMOS 2475 (743)",
        "group": "glo-ops",
        "lat": -7.19389407992813,
        "lon": 75.81298809074966,
        "alt_km": 19146.910147373528,
        "timestamp": "2025-12-16T05:49:09.475810+00:00",
        "meta_object_name": "COSMOS 2475 (743)",
        "meta_object_id": "2011-064C",
        "meta_epoch": "2025-12-15T18:53:44.988864",
        "meta_mean_motion": 2.13101578,
        "meta_eccentricity": 0.00263291,
        "meta_inclination": 65.178,
        "meta_ra_of_asc_node": 79.1657,
        "meta_arg_of_pericenter": 248.6854,
        "meta_mean_anomaly": 113.9368,
        "meta_ephemeris_type": 0,
        "meta_classification_type": "U",
        "meta_norad_cat_id": 37869,
        "meta_element_set_no": 999,
        "meta_rev_at_epoch": 10986,
        "meta_bstar": 0,
        "meta_mean_motion_dot": -5.6e-07,
        "meta_mean_motion_ddot": 0,
        "tle_line1": "1 37869U 11064C   25349.78732626 -.00000056  00000+0  00000+0 0  9999",
        "tle_line2": "2 37869  65.1780  79.1657 0026329 248.6854 113.9368  2.13101578109869"
      },
      "geometry": {
        "type": "Point",
        "coordinates": [
          75.81298809074966,
          -7.19389407992813
        ]
      }
    },
    {
      "type": "Feature",
      "properties": {
        "norad_id": 39155,
        "name": "COSMOS 2485 (747)",
        "group": "glo-ops",
        "lat": -64.53027792105584,
        "lon": -25.674431328021928,
        "alt_km": 19084.12223186006,
        "timestamp": "2025-12-16T05:49:09.475821+00:00",
        "meta_object_name": "COSMOS 2485 (747)",
        "meta_object_id": "2013-019A",
        "meta_epoch": "2025-12-13T13:15:58.678272",
        "meta_mean_motion": 2.13102947,
        "meta_eccentricity": 0.00246467,
        "meta_inclination": 65.3142,
        "meta_ra_of_asc_node": 79.8396,
        "meta_arg_of_pericenter": 229.7128,
        "meta_mean_anomaly": 130.0848,
        "meta_ephemeris_type": 0,
        "meta_classification_type": "U",
        "meta_norad_cat_id": 39155,
        "meta_element_set_no": 999,
        "meta_rev_at_epoch": 9832,
        "meta_bstar": 0,
        "meta_mean_motion_dot": -4.8e-07,
        "meta_mean_motion_ddot": 0,
        "tle_line1": "1 39155U 13019A   25347.55276248 -.00000048  00000+0  00000+0 0  9998",
        "tle_line2": "2 39155  65.3142  79.8396 0024646 229.7128 130.0848  2.13102947 98326"
      },
      "geometry": {
        "type": "Point",
        "coordinates": [
          -25.674431328021928,
          -64.53027792105584
        ]
      }
    },
    {
      "type": "Feature",
      "properties": {
        "norad_id": 39620,
        "name": "COSMOS 2492 (754)",
        "group": "glo-ops",
        "lat": -55.451315767707364,
        "lon": -81.55020000981536,
        "alt_km": 19101.234824889958,
        "timestamp": "2025-12-16T05:49:09.475832+00:00",
        "meta_object_name": "COSMOS 2492 (754)",
        "meta_object_id": "2014-012A",
        "meta_epoch": "2025-12-15T20:35:02.650848",
        "meta_mean_motion": 2.13103255,
        "meta_eccentricity": 0.00142146,
        "meta_inclination": 65.4057,
        "meta_ra_of_asc_node": 320.1641,
        "meta_arg_of_pericenter": 312.2787,
        "meta_mean_anomaly": 47.5956,
        "meta_ephemeris_type": 0,
        "meta_classification_type": "U",
        "meta_norad_cat_id": 39620,
        "meta_element_set_no": 999,
        "meta_rev_at_epoch": 9133,
        "meta_bstar": 0,
        "meta_mean_motion_dot": -6.8e-07,
        "meta_mean_motion_ddot": 0,
        "tle_line1": "1 39620U 14012A   25349.85766957 -.00000068  00000+0  00000+0 0  9997",
        "tle_line2": "2 39620  65.4057 320.1641 0014214 312.2787  47.5956  2.13103255 91332"
      },
      "geometry": {
        "type": "Point",
        "coordinates": [
          -81.55020000981536,
          -55.451315767707364
        ]
      }
    },
    {
      "type": "Feature",
      "properties": {
        "norad_id": 40001,
        "name": "COSMOS 2500 (755)",
        "group": "glo-ops",
        "lat": 15.35514371042648,
        "lon": 132.6546024513475,
        "alt_km": 19116.501839974535,
        "timestamp": "2025-12-16T05:49:09.475846+00:00",
        "meta_object_name": "COSMOS 2500 (755)",
        "meta_object_id": "2014-032A",
        "meta_epoch": "2025-12-15T13:27:13.709376",
        "meta_mean_motion": 2.1310598,
        "meta_eccentricity": 0.00081492,
        "meta_inclination": 65.3414,
        "meta_ra_of_asc_node": 319.9362,
        "meta_arg_of_pericenter": 219.0671,
        "meta_mean_anomaly": 140.8696,
        "meta_ephemeris_type": 0,
        "meta_classification_type": "U",
        "meta_norad_cat_id": 40001,
        "meta_element_set_no": 999,
        "meta_rev_at_epoch": 8954,
        "meta_bstar": 0,
        "meta_mean_motion_dot": -6.8e-07,
        "meta_mean_motion_ddot": 0,
        "tle_line1": "1 40001U 14032A   25349.56057534 -.00000068  00000+0  00000+0 0  9996",
        "tle_line2": "2 40001  65.3414 319.9362 0008149 219.0671 140.8696  2.13105980 89540"
      },
      "geometry": {
        "type": "Point",
        "coordinates": [
          132.6546024513475,
          15.35514371042648
        ]
      }
    },
    {
      "type": "Feature",
      "properties": {
        "norad_id": 40315,
        "name": "COSMOS 2501 (702K)",
        "group": "glo-ops",
        "lat": -31.823502253391407,
        "lon": 178.7613738657112,
        "alt_km": 19159.45438232702,
        "timestamp": "2025-12-16T05:49:09.475860+00:00",
        "meta_object_name": "COSMOS 2501 (702K)",
        "meta_object_id": "2014-075A",
        "meta_epoch": "2025-12-14T09:54:07.365600",
        "meta_mean_motion": 2.13101427,
        "meta_eccentricity": 0.00201134,
        "meta_inclination": 63.6139,
        "meta_ra_of_asc_node": 196.7672,
        "meta_arg_of_pericenter": 204.2903,
        "meta_mean_anomaly": 155.6894,
        "meta_ephemeris_type": 0,
        "meta_classification_type": "U",
        "meta_norad_cat_id": 40315,
        "meta_element_set_no": 999,
        "meta_rev_at_epoch": 8591,
        "meta_bstar": 0,
        "meta_mean_motion_dot": 9.7e-07,
        "meta_mean_motion_ddot": 0,
        "tle_line1": "1 40315U 14075A   25348.41258525  .00000097  00000+0  00000+0 0  9998",
        "tle_line2": "2 40315  63.6139 196.7672 0020113 204.2903 155.6894  2.13101427 85910"
      },
      "geometry": {
        "type": "Point",
        "coordinates": [
          178.7613738657112,
          -31.823502253391407
        ]
      }
    }
  ]
}